{
  "norad_id": 58719,
  "name": "STARLINK-31051",
  "history": [
    {
      "epoch": "2026-03-28T10:17:58.168608Z",
      "apogee_km": 476.0341252774315,
      "perigee_km": 474.4646997889604,
      "latitude_deg": -2.073168146434167e-05,
      "longitude_deg": 162.60349453493998,
      "height_km": 475.94138856148754,
      "semi_major_axis_km": 6853.386412533196,
      "eccentricity": 0.0001145,
      "inclination_deg": 53.1606,
      "raan_deg": 142.9456,
      "arg_perigee_deg": 74.751,
      "mean_anomaly_deg": 285.3617,
      "mean_motion_rev_day": 15.30188498
    }
  ]
}